[{"OBJECT_NAME":"STARLINK-34312","OBJECT_ID":"2025-142R","EPOCH":"2025-10-26T17:14:59.807328","MEAN_MOTION":14.983341,"ECCENTRICITY":0.00035461,"INCLINATION":70.0018,"RA_OF_ASC_NODE":292.2129,"ARG_OF_PERICENTER":269.3074,"MEAN_ANOMALY":90.7678,"EPHEMERIS_TYPE":0,"CLASSIFICATION_TYPE":"U","NORAD_CAT_ID":64711,"ELEMENT_SET_NO":999,"REV_AT_EPOCH":1958,"BSTAR":0.00030856027,"MEAN_MOTION_DOT":3.591e-5,"MEAN_MOTION_DDOT":0},{"OBJECT_NAME":"STARLINK-34515","OBJECT_ID":"2025-142S","EPOCH":"2025-10-26T17:31:14.864160","MEAN_MOTION":14.95915823,"ECCENTRICITY":0.00032188,"INCLINATION":70.0009,"RA_OF_ASC_NODE":291.4468,"ARG_OF_PERICENTER":269.7914,"MEAN_ANOMALY":90.2875,"EPHEMERIS_TYPE":0,"CLASSIFICATION_TYPE":"U","NORAD_CAT_ID":64712,"ELEMENT_SET_NO":999,"REV_AT_EPOCH":1941,"BSTAR":0.00032689018,"MEAN_MOTION_DOT":3.577e-5,"MEAN_MOTION_DDOT":0},{"OBJECT_NAME":"STARLINK-34583","OBJECT_ID":"2025-142T","EPOCH":"2025-10-26T23:48:20.189376","MEAN_MOTION":14.95932729,"ECCENTRICITY":0.00031188,"INCLINATION":70.0011,"RA_OF_ASC_NODE":290.7538,"ARG_OF_PERICENTER":266.9248,"MEAN_ANOMALY":93.1553,"EPHEMERIS_TYPE":0,"CLASSIFICATION_TYPE":"U","NORAD_CAT_ID":64713,"ELEMENT_SET_NO":999,"REV_AT_EPOCH":1945,"BSTAR":0.00072315617,"MEAN_MOTION_DOT":8.031e-5,"MEAN_MOTION_DDOT":0},{"OBJECT_NAME":"STARLINK-34574","OBJECT_ID":"2025-142U","EPOCH":"2025-10-26T11:08:29.522112","MEAN_MOTION":14.98337526,"ECCENTRICITY":0.00033279,"INCLINATION":70.0015,"RA_OF_ASC_NODE":292.9316,"ARG_OF_PERICENTER":273.6284,"MEAN_ANOMALY":86.4494,"EPHEMERIS_TYPE":0,"CLASSIFICATION_TYPE":"U","NORAD_CAT_ID":64714,"ELEMENT_SET_NO":999,"REV_AT_EPOCH":1938,"BSTAR":0.00012402946,"MEAN_MOTION_DOT":1.387e-5,"MEAN_MOTION_DDOT":0},{"OBJECT_NAME":"STARLINK-34533","OBJECT_ID":"2025-142V","EPOCH":"2025-10-26T17:14:45.296448","MEAN_MOTION":14.98341641,"ECCENTRICITY":0.00030055,"INCLINATION":70.0012,"RA_OF_ASC_NODE":292.2201,"ARG_OF_PERICENTER":273.4526,"MEAN_ANOMALY":86.6289,"EPHEMERIS_TYPE":0,"CLASSIFICATION_TYPE":"U","NORAD_CAT_ID":64715,"ELEMENT_SET_NO":999,"REV_AT_EPOCH":1939,"BSTAR":-0.00043074434,"MEAN_MOTION_DOT":-5.23e-5,"MEAN_MOTION_DDOT":0},{"OBJECT_NAME":"STARLINK-34548","OBJECT_ID":"2025-142W","EPOCH":"2025-10-26T23:15:15.456960","MEAN_MOTION":14.98337643,"ECCENTRICITY":0.00029933,"INCLINATION":70.0014,"RA_OF_ASC_NODE":291.4884,"ARG_OF_PERICENTER":269.0943,"MEAN_ANOMALY":90.9873,"EPHEMERIS_TYPE":0,"CLASSIFICATION_TYPE":"U","NORAD_CAT_ID":64716,"ELEMENT_SET_NO":999,"REV_AT_EPOCH":1943,"BSTAR":0.00036097778,"MEAN_MOTION_DOT":4.218e-5,"MEAN_MOTION_DDOT":0},{"OBJECT_NAME":"STARLINK-34568","OBJECT_ID":"2025-142X","EPOCH":"2025-10-26T22:15:11.077056","MEAN_MOTION":14.98338493,"ECCENTRICITY":0.00033477,"INCLINATION":70.0016,"RA_OF_ASC_NODE":291.7424,"ARG_OF_PERICENTER":268.004,"MEAN_ANOMALY":92.0736,"EPHEMERIS_TYPE":0,"CLASSIFICATION_TYPE":"U","NORAD_CAT_ID":64717,"ELEMENT_SET_NO":999,"REV_AT_EPOCH":1945,"BSTAR":0.00044672428,"MEAN_MOTION_DOT":5.242e-5,"MEAN_MOTION_DDOT":0},{"OBJECT_NAME":"STARLINK-34546","OBJECT_ID":"2025-142Y","EPOCH":"2025-10-26T16:38:41.734176","MEAN_MOTION":14.98334743,"ECCENTRICITY":0.00030443,"INCLINATION":70.0017,"RA_OF_ASC_NODE":292.1308,"ARG_OF_PERICENTER":273.0415,"MEAN_ANOMALY":87.0396,"EPHEMERIS_TYPE":0,"CLASSIFICATION_TYPE":"U","NORAD_CAT_ID":64718,"ELEMENT_SET_NO":999,"REV_AT_EPOCH":1958,"BSTAR":0.00029988891,"MEAN_MOTION_DOT":3.487e-5,"MEAN_MOTION_DDOT":0},{"OBJECT_NAME":"STARLINK-34577","OBJECT_ID":"2025-142Z","EPOCH":"2025-10-26T17:05:16.630656","MEAN_MOTION":14.9592096,"ECCENTRICITY":0.00030927,"INCLINATION":70.001,"RA_OF_ASC_NODE":290.9841,"ARG_OF_PERICENTER":268.484,"MEAN_ANOMALY":91.5963,"EPHEMERIS_TYPE":0,"CLASSIFICATION_TYPE":"U","NORAD_CAT_ID":64719,"ELEMENT_SET_NO":999,"REV_AT_EPOCH":1945,"BSTAR":0.00023135493,"MEAN_MOTION_DOT":2.505e-5,"MEAN_MOTION_DDOT":0},{"OBJECT_NAME":"STARLINK-34572","OBJECT_ID":"2025-142AA","EPOCH":"2025-10-26T23:45:17.210592","MEAN_MOTION":14.98336079,"ECCENTRICITY":0.00028761,"INCLINATION":70.0018,"RA_OF_ASC_NODE":291.5587,"ARG_OF_PERICENTER":266.4592,"MEAN_ANOMALY":93.6239,"EPHEMERIS_TYPE":0,"CLASSIFICATION_TYPE":"U","NORAD_CAT_ID":64720,"ELEMENT_SET_NO":999,"REV_AT_EPOCH":1962,"BSTAR":-0.00029143216,"MEAN_MOTION_DOT":-3.569e-5,"MEAN_MOTION_DDOT":0},{"OBJECT_NAME":"STARLINK-34558","OBJECT_ID":"2025-142AB","EPOCH":"2025-10-26T23:45:32.931072","MEAN_MOTION":14.98346008,"ECCENTRICITY":0.00027698,"INCLINATION":70.0024,"RA_OF_ASC_NODE":291.5534,"ARG_OF_PERICENTER":279.1108,"MEAN_ANOMALY":80.9738,"EPHEMERIS_TYPE":0,"CLASSIFICATION_TYPE":"U","NORAD_CAT_ID":64721,"ELEMENT_SET_NO":999,"REV_AT_EPOCH":1943,"BSTAR":0.00022706359,"MEAN_MOTION_DOT":2.618e-5,"MEAN_MOTION_DDOT":0},{"OBJECT_NAME":"STARLINK-34393","OBJECT_ID":"2025-144A","EPOCH":"2025-10-26T17:11:22.025760","MEAN_MOTION":15.30218442,"ECCENTRICITY":0.00011975,"INCLINATION":53.1598,"RA_OF_ASC_NODE":83.0747,"ARG_OF_PERICENTER":80.9225,"MEAN_ANOMALY":279.1911,"EPHEMERIS_TYPE":0,"CLASSIFICATION_TYPE":"U","NORAD_CAT_ID":64724,"ELEMENT_SET_NO":999,"REV_AT_EPOCH":1921,"BSTAR":0.001495322,"MEAN_MOTION_DOT":0.00044217,"MEAN_MOTION_DDOT":0},{"OBJECT_NAME":"STARLINK-34562","OBJECT_ID":"2025-144B","EPOCH":"2025-10-26T19:44:39.669504","MEAN_MOTION":15.30183524,"ECCENTRICITY":0.00012466,"INCLINATION":53.1578,"RA_OF_ASC_NODE":83.027,"ARG_OF_PERICENTER":82.3128,"MEAN_ANOMALY":277.8015,"EPHEMERIS_TYPE":0,"CLASSIFICATION_TYPE":"U","NORAD_CAT_ID":64725,"ELEMENT_SET_NO":999,"REV_AT_EPOCH":1919,"BSTAR":0.0011196551,"MEAN_MOTION_DOT":0.00032932,"MEAN_MOTION_DDOT":0},{"OBJECT_NAME":"STARLINK-34557","OBJECT_ID":"2025-144C","EPOCH":"2025-10-26T16:06:10.709856","MEAN_MOTION":15.30200124,"ECCENTRICITY":0.00012106,"INCLINATION":53.1608,"RA_OF_ASC_NODE":83.502,"ARG_OF_PERICENTER":86.3898,"MEAN_ANOMALY":273.7242,"EPHEMERIS_TYPE":0,"CLASSIFICATION_TYPE":"U","NORAD_CAT_ID":64726,"ELEMENT_SET_NO":999,"REV_AT_EPOCH":1919,"BSTAR":0.001055521,"MEAN_MOTION_DOT":0.00031033,"MEAN_MOTION_DDOT":0},{"OBJECT_NAME":"STARLINK-34242","OBJECT_ID":"2025-144D","EPOCH":"2025-10-26T16:47:12.087744","MEAN_MOTION":15.30195104,"ECCENTRICITY":9.893e-5,"INCLINATION":53.1577,"RA_OF_ASC_NODE":83.6753,"ARG_OF_PERICENTER":61.8976,"MEAN_ANOMALY":298.2124,"EPHEMERIS_TYPE":0,"CLASSIFICATION_TYPE":"U","NORAD_CAT_ID":64727,"ELEMENT_SET_NO":999,"REV_AT_EPOCH":1919,"BSTAR":0.0002605619,"MEAN_MOTION_DOT":7.365e-5,"MEAN_MOTION_DDOT":0},{"OBJECT_NAME":"STARLINK-34239","OBJECT_ID":"2025-144E","EPOCH":"2025-10-26T17:29:35.279520","MEAN_MOTION":15.30199957,"ECCENTRICITY":0.00011408,"INCLINATION":53.1597,"RA_OF_ASC_NODE":83.1491,"ARG_OF_PERICENTER":82.8061,"MEAN_ANOMALY":277.307,"EPHEMERIS_TYPE":0,"CLASSIFICATION_TYPE":"U","NORAD_CAT_ID":64728,"ELEMENT_SET_NO":999,"REV_AT_EPOCH":1920,"BSTAR":0.00094419317,"MEAN_MOTION_DOT":0.00027709,"MEAN_MOTION_DDOT":0}]
