STARLINK-34312          
1 64711U 25142R   25299.71874777  .00003591  00000+0  30856-3 0  9990
2 64711  70.0018 292.2129 0003546 269.3074  90.7678 14.98334100 19586
STARLINK-34515          
1 64712U 25142S   25299.73003315  .00003577  00000+0  32689-3 0  9995
2 64712  70.0009 291.4468 0003218 269.7914  90.2875 14.95915823 19417
STARLINK-34583          
1 64713U 25142T   25299.99190034  .00008031  00000+0  72316-3 0  9990
2 64713  70.0011 290.7538 0003118 266.9248  93.1553 14.95932729 19452
STARLINK-34574          
1 64714U 25142U   25299.46423058  .00001387  00000+0  12403-3 0  9996
2 64714  70.0015 292.9316 0003327 273.6284  86.4494 14.98337526 19380
STARLINK-34533          
1 64715U 25142V   25299.71857982 -.00005230  00000+0 -43074-3 0  9993
2 64715  70.0012 292.2201 0003005 273.4526  86.6289 14.98341641 19392
STARLINK-34548          
1 64716U 25142W   25299.96892890  .00004218  00000+0  36098-3 0  9999
2 64716  70.0014 291.4884 0002993 269.0943  90.9873 14.98337643 19431
STARLINK-34568          
1 64717U 25142X   25299.92721154  .00005242  00000+0  44672-3 0  9995
2 64717  70.0016 291.7424 0003347 268.0040  92.0736 14.98338493 19455
STARLINK-34546          
1 64718U 25142Y   25299.69353859  .00003487  00000+0  29989-3 0  9996
2 64718  70.0017 292.1308 0003044 273.0415  87.0396 14.98334743 19583
STARLINK-34577          
1 64719U 25142Z   25299.71199804  .00002505  00000+0  23135-3 0  9995
2 64719  70.0010 290.9841 0003092 268.4840  91.5963 14.95920960 19453
STARLINK-34572          
1 64720U 25142AA  25299.98978253 -.00003569  00000+0 -29143-3 0  9997
2 64720  70.0018 291.5587 0002876 266.4592  93.6239 14.98336079 19621
STARLINK-34558          
1 64721U 25142AB  25299.98996448  .00002618  00000+0  22706-3 0  9994
2 64721  70.0024 291.5534 0002769 279.1108  80.9738 14.98346008 19431
STARLINK-34393          
1 64724U 25144A   25299.71622715  .00044217  00000+0  14953-2 0  9998
2 64724  53.1598  83.0747 0001197  80.9225 279.1911 15.30218442 19212
STARLINK-34562          
1 64725U 25144B   25299.82268136  .00032932  00000+0  11197-2 0  9992
2 64725  53.1578  83.0270 0001246  82.3128 277.8015 15.30183524 19194
STARLINK-34557          
1 64726U 25144C   25299.67095729  .00031033  00000+0  10555-2 0  9990
2 64726  53.1608  83.5020 0001210  86.3898 273.7242 15.30200124 19199
STARLINK-34242          
1 64727U 25144D   25299.69944546  .00007365  00000+0  26056-3 0  9998
2 64727  53.1577  83.6753 0000989  61.8976 298.2124 15.30195104 19198
STARLINK-34239          
1 64728U 25144E   25299.72888055  .00027709  00000+0  94419-3 0  9997
2 64728  53.1597  83.1491 0001140  82.8061 277.3070 15.30199957 19203
